NORAD_CAT_ID,OBJECT_NAME,OBJECT_TYPE,EPOCH,MEAN_MOTION,ECCENTRICITY,INCLINATION,RA_OF_ASC_NODE,ARG_OF_PERICENTER,MEAN_ANOMALY,BSTAR,MEAN_MOTION_DOT,MEAN_MOTION_DDOT,TLE_LINE0,TLE_LINE1,TLE_LINE2,SEMIMAJOR_AXIS,PERIOD,APOGEE,PERIGEE,DECAYED
53033.0,STARLINK-4167,PAYLOAD,2023-08-29 08:54:02,15.08839805,0.0002076,53.2162,259.0597,101.9938,258.1287,0.00010184,1.333e-05,0.0,0 STARLINK-4167,1 53033U 22076AZ  23241.37086623  .00001333  00000-0  10184-3 0  9995,2 53033  53.2162 259.0597 0002076 101.9938 258.1287 15.08839805 64200,6917.881,95.438,541.182,538.31,0.0
53033.0,STARLINK-4167,PAYLOAD,2023-08-29 13:40:12,15.0884281,0.0001359,53.2163,258.1675,95.3361,264.7786,0.00010108,1.321e-05,0.0,0 STARLINK-4167,1 53033U 22076AZ  23241.56958415  .00001321  00000-0  10108-3 0  9996,2 53033  53.2163 258.1675 0001359  95.3361 264.7786 15.08842810 63764,6917.872,95.437,540.677,538.797,0.0
53033.0,STARLINK-4167,PAYLOAD,2023-08-30 07:09:27,15.08835621,0.0001384,53.2163,254.8957,89.3538,270.7613,4.2064e-05,3.82e-06,0.0,0 STARLINK-4167,1 53033U 22076AZ  23242.29823249  .00000382  00000-0  42064-4 0  9996,2 53033  53.2163 254.8957 0001384  89.3538 270.7613 15.08835621 64340,6917.894,95.438,540.716,538.801,0.0
53033.0,STARLINK-4167,PAYLOAD,2023-08-30 10:20:13,15.08837216,0.0001396,53.2164,254.3009,89.0603,271.0549,5.232e-05,5.45e-06,0.0,0 STARLINK-4167,1 53033U 22076AZ  23242.43071150  .00000545  00000-0  52320-4 0  9995,2 53033  53.2164 254.3009 0001396  89.0603 271.0549 15.08837216 63890,6917.889,95.438,540.72,538.788,0.0
53033.0,STARLINK-4167,PAYLOAD,2023-08-31 00:38:41,15.08840813,0.0001402,53.2167,251.625,91.4118,268.7034,9.8398e-05,1.278e-05,0.0,0 STARLINK-4167,1 53033U 22076AZ  23243.02686857  .00001278  00000-0  98398-4 0  9996,2 53033  53.2167 251.6250 0001402  91.4118 268.7034 15.08840813 64459,6917.878,95.438,540.713,538.773,0.0
53033.0,STARLINK-4167,PAYLOAD,2023-08-31 11:46:22,15.08853512,0.0001392,53.2171,249.5451,88.5872,271.5279,3.1212e-05,2.09e-06,0.0,0 STARLINK-4167,1 53033U 22076AZ  23243.49054060  .00000209  00000-0  31212-4 0  9997,2 53033  53.2171 249.5451 0001392  88.5872 271.5279 15.08853512 64526,6917.839,95.437,540.667,538.741,0.0
53033.0,STARLINK-4167,PAYLOAD,2023-09-01 00:29:28,15.08834745,0.0001435,53.2159,247.1672,83.7264,276.3891,7.9452e-05,9.77e-06,0.0,0 STARLINK-4167,1 53033U 22076AZ  23244.02047243  .00000977  00000-0  79452-4 0  9992,2 53033  53.2159 247.1672 0001435  83.7264 276.3891 15.08834745 64600,6917.896,95.438,540.754,538.769,0.0
53033.0,STARLINK-4167,PAYLOAD,2023-09-01 11:37:10,15.08840748,0.0001445,53.2162,245.0856,86.6572,273.4586,7.2848e-05,8.72e-06,0.0,0 STARLINK-4167,1 53033U 22076AZ  23244.48414975  .00000872  00000-0  72848-4 0  9998,2 53033  53.2162 245.0856 0001445  86.6572 273.4586 15.08840748 64205,6917.878,95.438,540.743,538.743,0.0
53033.0,STARLINK-4167,PAYLOAD,2023-09-02 00:20:15,15.08843269,0.0001613,53.2139,242.7065,91.0877,269.03,5.4675e-05,5.82e-06,0.0,0 STARLINK-4167,1 53033U 22076AZ  23245.01406796  .00000582  00000-0  54675-4 0  9996,2 53033  53.2139 242.7065 0001613  91.0877 269.0300 15.08843269 64756,6917.87,95.437,540.851,538.62,0.0
53033.0,STARLINK-4167,PAYLOAD,2023-09-02 11:27:57,15.08844603,0.0001648,53.2151,240.6237,95.2718,264.8462,4.9045e-05,4.93e-06,0.0,0 STARLINK-4167,1 53033U 22076AZ  23245.47774626  .00000493  00000-0  49045-4 0  9992,2 53033  53.2151 240.6237 0001648  95.2718 264.8462 15.08844603 64357,6917.866,95.437,540.871,538.591,0.0
53033.0,STARLINK-4167,PAYLOAD,2023-09-02 16:14:07,15.08830664,0.0001919,53.2153,239.731,92.138,267.9832,5.6717e-06,-1.98e-06,0.0,0 STARLINK-4167,1 53033U 22076AZ  23245.67647746 -.00000198  00000-0  56717-5 0  9994,2 53033  53.2153 239.7310 0001919  92.1380 267.9832 15.08830664 64854,6917.909,95.438,541.101,538.446,0.0
53033.0,STARLINK-4167,PAYLOAD,2023-09-03 06:32:35,15.08838562,0.0001359,53.2164,237.0566,92.3934,267.7214,5.5397e-05,5.94e-06,0.0,0 STARLINK-4167,1 53033U 22076AZ  23246.27263249  .00000594  00000-0  55397-4 0  9994,2 53033  53.2164 237.0566 0001359  92.3934 267.7214 15.08838562 64942,6917.885,95.438,540.69,538.81,0.0
53033.0,STARLINK-4167,PAYLOAD,2023-09-03 11:18:44,15.08841244,0.0001406,53.2164,236.1635,93.3052,266.8101,7.8694e-05,9.65e-06,0.0,0 STARLINK-4167,1 53033U 22076AZ  23246.47135029  .00000965  00000-0  78694-4 0  9997,2 53033  53.2164 236.1635 0001406  93.3052 266.8101 15.08841244 64502,6917.877,95.437,540.714,538.769,0.0
53033.0,STARLINK-4167,PAYLOAD,2023-09-04 09:34:09,15.08839094,0.0001252,53.2164,231.9991,93.4959,266.6176,4.2277e-05,3.85e-06,0.0,0 STARLINK-4167,1 53033U 22076AZ  23247.39871573  .00000385  00000-0  42277-4 0  9994,2 53033  53.2164 231.9991 0001252  93.4959 266.6176 15.08839094 65114,6917.883,95.438,540.614,538.882,0.0
53033.0,STARLINK-4167,PAYLOAD,2023-09-05 11:00:19,15.08841261,0.0001267,53.2167,227.2417,93.5713,266.5424,0.00010653,1.408e-05,0.0,0 STARLINK-4167,1 53033U 22076AZ  23248.45855616  .00001408  00000-0  10653-3 0  9991,2 53033  53.2167 227.2417 0001267  93.5713 266.5424 15.08841261 65274,6917.877,95.437,540.618,538.865,0.0
53033.0,STARLINK-4167,PAYLOAD,2023-09-06 01:18:47,15.08838372,0.0001288,53.2169,224.5654,95.0773,265.0366,0.00013496,1.861e-05,0.0,0 STARLINK-4167,1 53033U 22076AZ  23249.05471949  .00001861  00000-0  13496-3 0  9992,2 53033  53.2169 224.5654 0001288  95.0773 265.0366 15.08838372 64890,6917.885,95.438,540.641,538.859,0.0
53033.0,STARLINK-4167,PAYLOAD,2023-09-06 15:37:15,15.08846727,0.0001289,53.2162,221.8881,92.551,267.563,6.6436e-05,7.7e-06,0.0,0 STARLINK-4167,1 53033U 22076AZ  23249.65087616  .00000770  00000-0  66436-4 0  9993,2 53033  53.2162 221.8881 0001289  92.5510 267.5630 15.08846727 65454,6917.86,95.437,540.617,538.833,0.0
53033.0,STARLINK-4167,PAYLOAD,2023-09-06 21:58:48,15.08842868,0.000128,53.215,220.6986,84.4433,275.6705,6.5523e-05,7.55e-06,0.0,0 STARLINK-4167,1 53033U 22076AZ  23249.91584011  .00000755  00000-0  65523-4 0  9992,2 53033  53.2150 220.6986 0001280  84.4433 275.6705 15.08842868 65027,6917.872,95.437,540.622,538.851,0.0
53033.0,STARLINK-4167,PAYLOAD,2023-09-07 07:31:07,15.08844665,0.0001309,53.215,218.9144,84.8634,275.2508,7.2101e-05,8.6e-06,0.0,0 STARLINK-4167,1 53033U 22076AZ  23250.31327822  .00000860  00000-0  72101-4 0  9990,2 53033  53.2150 218.9144 0001309  84.8634 275.2508 15.08844665 65082,6917.866,95.437,540.637,538.826,0.0
53033.0,STARLINK-4167,PAYLOAD,2023-09-08 02:35:44,15.08846279,0.0001512,53.2152,215.3465,89.8291,270.2875,8.2387e-05,1.024e-05,0.0,0 STARLINK-4167,1 53033U 22076AZ  23251.10815592  .00001024  00000-0  82387-4 0  9994,2 53033  53.2152 215.3465 0001512  89.8291 270.2875 15.08846279 65671,6917.861,95.437,540.772,538.68,0.0
53033.0,STARLINK-4167,PAYLOAD,2023-09-08 04:11:07,15.08844983,0.0001387,53.2159,215.0479,97.5645,262.5505,9.0049e-05,1.146e-05,0.0,0 STARLINK-4167,1 53033U 22076AZ  23251.17439581  .00001146  00000-0  90049-4 0  9990,2 53033  53.2159 215.0479 0001387  97.5645 262.5505 15.08844983 65213,6917.865,95.437,540.69,538.771,0.0
53033.0,STARLINK-4167,PAYLOAD,2023-09-09 02:26:31,15.08841598,0.00014,53.2173,210.8885,90.7455,269.3698,7.4519e-05,8.98e-06,0.0,0 STARLINK-4167,1 53033U 22076AZ  23252.10175901  .00000898  00000-0  74519-4 0  9994,2 53033  53.2173 210.8885 0001400  90.7455 269.3698 15.08841598 65827,6917.876,95.437,540.709,538.772,0.0
53033.0,STARLINK-4167,PAYLOAD,2023-09-09 07:12:40,15.08847165,0.0001309,53.2173,209.996,98.911,261.2031,9.9507e-05,1.296e-05,0.0,0 STARLINK-4167,1 53033U 22076AZ  23252.30047379  .00001296  00000-0  99507-4 0  9990,2 53033  53.2173 209.9960 0001309  98.9110 261.2031 15.08847165 65385,6917.858,95.437,540.629,538.818,0.0
53033.0,STARLINK-4167,PAYLOAD,2023-09-10 00:41:56,15.08838743,0.0001399,53.2176,206.7255,94.7127,265.4025,4.7663e-05,4.71e-06,0.0,0 STARLINK-4167,1 53033U 22076AZ  23253.02912124  .00000471  00000-0  47663-4 0  9999,2 53033  53.2176 206.7255 0001399  94.7127 265.4025 15.08838743 65966,6917.884,95.438,540.717,538.781,0.0
53033.0,STARLINK-4167,PAYLOAD,2023-09-10 07:03:28,15.08845568,0.0001348,53.2173,205.5359,94.0828,266.0318,0.00010438,1.374e-05,0.0,0 STARLINK-4167,1 53033U 22076AZ  23253.29407560  .00001374  00000-0  10438-3 0  9993,2 53033  53.2173 205.5359 0001348  94.0828 266.0318 15.08845568 66001,6917.863,95.437,540.661,538.796,0.0
53033.0,STARLINK-4167,PAYLOAD,2023-09-11 02:08:06,15.08841588,0.0001256,53.218,201.9681,100.781,259.3324,6.3885e-05,7.29e-06,0.0,0 STARLINK-4167,1 53033U 22076AZ  23254.08896113  .00000729  00000-0  63885-4 0  9995,2 53033  53.2180 201.9681 0001256 100.7810 259.3324 15.08841588 66124,6917.876,95.437,540.609,538.872,0.0
53033.0,STARLINK-4167,PAYLOAD,2023-09-11 03:43:29,15.08843225,0.0001239,53.2178,201.6706,101.4114,258.7018,7.8402e-05,9.6e-06,0.0,0 STARLINK-4167,1 53033U 22076AZ  23254.15520004  .00000960  00000-0  78402-4 0  9994,2 53033  53.2178 201.6706 0001239 101.4114 258.7018 15.08843225 65663,6917.871,95.437,540.593,538.878,0.0
53033.0,STARLINK-4167,PAYLOAD,2023-09-12 05:09:39,15.0884761,0.0001296,53.2166,196.9123,92.1604,267.9536,0.00017016,2.422e-05,0.0,0 STARLINK-4167,1 53033U 22076AZ  23255.21503864  .00002422  00000-0  17016-3 0  9995,2 53033  53.2166 196.9123 0001296  92.1604 267.9536 15.08847610 66291,6917.857,95.437,540.619,538.826,0.0
53033.0,STARLINK-4167,PAYLOAD,2023-09-13 01:49:40,15.08844093,0.0001589,53.2167,193.0469,74.0871,286.0296,0.00010505,1.384e-05,0.0,0 STARLINK-4167,1 53033U 22076AZ  23256.07616223  .00001384  00000-0  10505-3 0  9996,2 53033  53.2167 193.0469 0001589  74.0871 286.0296 15.08844093 66425,6917.868,95.437,540.832,538.634,0.0
53033.0,STARLINK-4167,PAYLOAD,2023-09-13 05:00:26,15.08852304,0.000147,53.2165,192.4516,81.9366,278.1793,0.00022437,3.286e-05,0.0,0 STARLINK-4167,1 53033U 22076AZ  23256.20863767  .00003286  00000-0  22437-3 0  9998,2 53033  53.2165 192.4516 0001470  81.9366 278.1793 15.08852304 66444,6917.843,95.437,540.725,538.691,0.0
